CCSDS_OMM_VERS = 2.0
CREATION_DATE  = 
ORIGINATOR     = 

OBJECT_NAME    = SL-3 R/B
OBJECT_ID      = 1982-079B
CENTER_NAME    = EARTH
REF_FRAME      = TEME
TIME_SYSTEM    = UTC
MEAN_ELEMENT_THEORY = SGP/SGP4

EPOCH          = 2026-03-28T05:40:44.449248
MEAN_MOTION    = 15.25044159
ECCENTRICITY   = .00255072
INCLINATION    = 81.1485
RA_OF_ASC_NODE = 171.1784
ARG_OF_PERICENTER = 103.7667
MEAN_ANOMALY   = 256.6408

EPHEMERIS_TYPE = 0
CLASSIFICATION_TYPE = U
NORAD_CAT_ID   = 13403
ELEMENT_SET_NO = 999
REV_AT_EPOCH   = 38052
BSTAR          = .26273314E-3
MEAN_MOTION_DOT = .6651E-4
MEAN_MOTION_DDOT = 0

CCSDS_OMM_VERS = 2.0
CREATION_DATE  = 
ORIGINATOR     = 

OBJECT_NAME    = SL-14 R/B
OBJECT_ID      = 1982-092B
CENTER_NAME    = EARTH
REF_FRAME      = TEME
TIME_SYSTEM    = UTC
MEAN_ELEMENT_THEORY = SGP/SGP4

EPOCH          = 2026-03-28T03:38:51.906624
MEAN_MOTION    = 14.86682469
ECCENTRICITY   = .00190047
INCLINATION    = 82.5659
RA_OF_ASC_NODE = 124.1284
ARG_OF_PERICENTER = 237.5194
MEAN_ANOMALY   = 179.9998

EPHEMERIS_TYPE = 0
CLASSIFICATION_TYPE = U
NORAD_CAT_ID   = 13553
ELEMENT_SET_NO = 999
REV_AT_EPOCH   = 33167
BSTAR          = .42629701E-4
MEAN_MOTION_DOT = .404E-5
MEAN_MOTION_DDOT = 0

CCSDS_OMM_VERS = 2.0
CREATION_DATE  = 
ORIGINATOR     = 

OBJECT_NAME    = SL-3 R/B
OBJECT_ID      = 1983-010B
CENTER_NAME    = EARTH
REF_FRAME      = TEME
TIME_SYSTEM    = UTC
MEAN_ELEMENT_THEORY = SGP/SGP4

EPOCH          = 2026-03-28T06:19:54.497280
MEAN_MOTION    = 15.46973076
ECCENTRICITY   = .00160395
INCLINATION    = 81.1057
RA_OF_ASC_NODE = 339.4667
ARG_OF_PERICENTER = 347.8137
MEAN_ANOMALY   = 12.2718

EPHEMERIS_TYPE = 0
CLASSIFICATION_TYPE = U
NORAD_CAT_ID   = 13819
ELEMENT_SET_NO = 999
REV_AT_EPOCH   = 36081
BSTAR          = .32549368E-3
MEAN_MOTION_DOT = .16538E-3
MEAN_MOTION_DDOT = 0

CCSDS_OMM_VERS = 2.0
CREATION_DATE  = 
ORIGINATOR     = 

OBJECT_NAME    = SL-3 R/B
OBJECT_ID      = 1983-075B
CENTER_NAME    = EARTH
REF_FRAME      = TEME
TIME_SYSTEM    = UTC
MEAN_ELEMENT_THEORY = SGP/SGP4

EPOCH          = 2026-03-28T05:19:44.452992
MEAN_MOTION    = 15.38843694
ECCENTRICITY   = .00221812
INCLINATION    = 97.6141
RA_OF_ASC_NODE = 92.5072
ARG_OF_PERICENTER = 158.5424
MEAN_ANOMALY   = 201.6756

EPHEMERIS_TYPE = 0
CLASSIFICATION_TYPE = U
NORAD_CAT_ID   = 14208
ELEMENT_SET_NO = 999
REV_AT_EPOCH   = 33300
BSTAR          = .32157433E-3
MEAN_MOTION_DOT = .12375E-3
MEAN_MOTION_DDOT = 0

CCSDS_OMM_VERS = 2.0
CREATION_DATE  = 
ORIGINATOR     = 

OBJECT_NAME    = COSMOS 1536
OBJECT_ID      = 1984-013A
CENTER_NAME    = EARTH
REF_FRAME      = TEME
TIME_SYSTEM    = UTC
MEAN_ELEMENT_THEORY = SGP/SGP4

EPOCH          = 2026-03-28T05:40:21.700128
MEAN_MOTION    = 15.24069297
ECCENTRICITY   = .00132491
INCLINATION    = 82.5415
RA_OF_ASC_NODE = 89.4056
ARG_OF_PERICENTER = 210.1146
MEAN_ANOMALY   = 149.9331

EPHEMERIS_TYPE = 0
CLASSIFICATION_TYPE = U
NORAD_CAT_ID   = 14699
ELEMENT_SET_NO = 999
REV_AT_EPOCH   = 27544
BSTAR          = .28954365E-3
MEAN_MOTION_DOT = .7075E-4
MEAN_MOTION_DDOT = 0

CCSDS_OMM_VERS = 2.0
CREATION_DATE  = 
ORIGINATOR     = 

OBJECT_NAME    = SL-14 R/B
OBJECT_ID      = 1984-027B
CENTER_NAME    = EARTH
REF_FRAME      = TEME
TIME_SYSTEM    = UTC
MEAN_ELEMENT_THEORY = SGP/SGP4

EPOCH          = 2026-03-28T03:26:36.907008
MEAN_MOTION    = 14.85995490
ECCENTRICITY   = .00164703
INCLINATION    = 82.5416
RA_OF_ASC_NODE = 227.7034
ARG_OF_PERICENTER = 272.5852
MEAN_ANOMALY   = 87.3479

EPHEMERIS_TYPE = 0
CLASSIFICATION_TYPE = U
NORAD_CAT_ID   = 14820
ELEMENT_SET_NO = 999
REV_AT_EPOCH   = 25037
BSTAR          = .64613579E-4
MEAN_MOTION_DOT = .59E-5
MEAN_MOTION_DDOT = 0

CCSDS_OMM_VERS = 2.0
CREATION_DATE  = 
ORIGINATOR     = 

OBJECT_NAME    = SL-8 R/B
OBJECT_ID      = 1985-006B
CENTER_NAME    = EARTH
REF_FRAME      = TEME
TIME_SYSTEM    = UTC
MEAN_ELEMENT_THEORY = SGP/SGP4

EPOCH          = 2026-03-28T02:49:59.734272
MEAN_MOTION    = 14.37796154
ECCENTRICITY   = .00177
INCLINATION    = 74.0450
RA_OF_ASC_NODE = 227.2359
ARG_OF_PERICENTER = 139.7979
MEAN_ANOMALY   = 33.0153

EPHEMERIS_TYPE = 0
CLASSIFICATION_TYPE = U
NORAD_CAT_ID   = 15483
ELEMENT_SET_NO = 999
REV_AT_EPOCH   = 15667
BSTAR          = .10771E-3
MEAN_MOTION_DOT = .299E-5
MEAN_MOTION_DDOT = 0

CCSDS_OMM_VERS = 2.0
CREATION_DATE  = 
ORIGINATOR     = 

OBJECT_NAME    = SL-12 R/B(2)
OBJECT_ID      = 1985-042D
CENTER_NAME    = EARTH
REF_FRAME      = TEME
TIME_SYSTEM    = UTC
MEAN_ELEMENT_THEORY = SGP/SGP4

EPOCH          = 2026-03-28T06:33:51.291648
MEAN_MOTION    = 14.21987641
ECCENTRICITY   = .0032845
INCLINATION    = 71.1085
RA_OF_ASC_NODE = 48.4634
ARG_OF_PERICENTER = 97.3516
MEAN_ANOMALY   = 5.1811

EPHEMERIS_TYPE = 0
CLASSIFICATION_TYPE = U
NORAD_CAT_ID   = 15772
ELEMENT_SET_NO = 999
REV_AT_EPOCH   = 11703
BSTAR          = .46279227E-4
MEAN_MOTION_DOT = .55E-6
MEAN_MOTION_DDOT = 0

CCSDS_OMM_VERS = 2.0
CREATION_DATE  = 
ORIGINATOR     = 

OBJECT_NAME    = SL-14 R/B
OBJECT_ID      = 1985-069B
CENTER_NAME    = EARTH
REF_FRAME      = TEME
TIME_SYSTEM    = UTC
MEAN_ELEMENT_THEORY = SGP/SGP4

EPOCH          = 2026-03-28T04:33:33.044256
MEAN_MOTION    = 14.86452951
ECCENTRICITY   = .00199922
INCLINATION    = 82.5305
RA_OF_ASC_NODE = 7.5416
ARG_OF_PERICENTER = 128.0967
MEAN_ANOMALY   = 232.2056

EPHEMERIS_TYPE = 0
CLASSIFICATION_TYPE = U
NORAD_CAT_ID   = 15945
ELEMENT_SET_NO = 999
REV_AT_EPOCH   = 17558
BSTAR          = .58444371E-4
MEAN_MOTION_DOT = .543E-5
MEAN_MOTION_DDOT = 0

CCSDS_OMM_VERS = 2.0
CREATION_DATE  = 
ORIGINATOR     = 

OBJECT_NAME    = SL-16 R/B
OBJECT_ID      = 1985-097B
CENTER_NAME    = EARTH
REF_FRAME      = TEME
TIME_SYSTEM    = UTC
MEAN_ELEMENT_THEORY = SGP/SGP4

EPOCH          = 2026-03-28T04:57:57.024864
MEAN_MOTION    = 14.16603602
ECCENTRICITY   = .00094687
INCLINATION    = 71.0008
RA_OF_ASC_NODE = 101.5683
ARG_OF_PERICENTER = 238.1697
MEAN_ANOMALY   = 194.3708

EPHEMERIS_TYPE = 0
CLASSIFICATION_TYPE = U
NORAD_CAT_ID   = 16182
ELEMENT_SET_NO = 999
REV_AT_EPOCH   = 8985
BSTAR          = .2380936E-5
MEAN_MOTION_DOT = -.43E-6
MEAN_MOTION_DDOT = 0

CCSDS_OMM_VERS = 2.0
CREATION_DATE  = 
ORIGINATOR     = 

OBJECT_NAME    = SL-14 R/B
OBJECT_ID      = 1986-006B
CENTER_NAME    = EARTH
REF_FRAME      = TEME
TIME_SYSTEM    = UTC
MEAN_ELEMENT_THEORY = SGP/SGP4

EPOCH          = 2026-03-28T03:53:40.925472
MEAN_MOTION    = 14.86843628
ECCENTRICITY   = .00757509
INCLINATION    = 82.5250
RA_OF_ASC_NODE = 242.3471
ARG_OF_PERICENTER = 210.5255
MEAN_ANOMALY   = 149.1544

EPHEMERIS_TYPE = 0
CLASSIFICATION_TYPE = U
NORAD_CAT_ID   = 16496
ELEMENT_SET_NO = 999
REV_AT_EPOCH   = 15195
BSTAR          = .10339888E-3
MEAN_MOTION_DOT = .998E-5
MEAN_MOTION_DDOT = 0

CCSDS_OMM_VERS = 2.0
CREATION_DATE  = 
ORIGINATOR     = 

OBJECT_NAME    = COSMOS 1743
OBJECT_ID      = 1986-034A
CENTER_NAME    = EARTH
REF_FRAME      = TEME
TIME_SYSTEM    = UTC
MEAN_ELEMENT_THEORY = SGP/SGP4

EPOCH          = 2026-03-27T22:22:07.218336
MEAN_MOTION    = 15.60026052
ECCENTRICITY   = .0004094
INCLINATION    = 82.5299
RA_OF_ASC_NODE = 54.6624
ARG_OF_PERICENTER = 173.9679
MEAN_ANOMALY   = 186.1627

EPHEMERIS_TYPE = 0
CLASSIFICATION_TYPE = U
NORAD_CAT_ID   = 16719
ELEMENT_SET_NO = 999
REV_AT_EPOCH   = 18309
BSTAR          = .53018E-3
MEAN_MOTION_DOT = .43051E-3
MEAN_MOTION_DDOT = 0

